{
  "type": "FeatureCollection",
  "features": [
    {
      "type": "Feature",
      "properties": {
        "norad_id": 66408,
        "name": "STARLINK-35679",
        "group": "last-30-days",
        "lat": 12.883371390189236,
        "lon": -72.59958315573587,
        "alt_km": 416.8246949891645,
        "timestamp": "2025-12-09T20:37:08.054480+00:00",
        "meta_object_name": "STARLINK-35679",
        "meta_object_id": "2025-257AE",
        "meta_epoch": "2025-12-09T05:04:06.822048",
        "meta_mean_motion": 15.49344451,
        "meta_eccentricity": 0.0001457,
        "meta_inclination": 53.1586,
        "meta_ra_of_asc_node": 280.6256,
        "meta_arg_of_pericenter": 79.4108,
        "meta_mean_anomaly": 280.7065,
        "meta_ephemeris_type": 0,
        "meta_classification_type": "U",
        "meta_norad_cat_id": 66408,
        "meta_element_set_no": 999,
        "meta_rev_at_epoch": 583,
        "meta_bstar": 0.0022741,
        "meta_mean_motion_dot": 0.00128284,
        "meta_mean_motion_ddot": 0,
        "tle_line1": "1 66408U 25257AE  25343.21119007  .00128284  00000+0  22741-2 0  9995",
        "tle_line2": "2 66408  53.1586 280.6256 0001457  79.4108 280.7065 15.49344451  5833"
      },
      "geometry": {
        "type": "Point",
        "coordinates": [
          -72.59958315573587,
          12.883371390189236
        ]
      }
    },
    {
      "type": "Feature",
      "properties": {
        "norad_id": 66409,
        "name": "CHUTIAN-2 A",
        "group": "last-30-days",
        "lat": 13.77844798430675,
        "lon": -129.28420404559546,
        "alt_km": 717.8434159349736,
        "timestamp": "2025-12-09T20:37:08.054491+00:00",
        "meta_object_name": "CHUTIAN-2 A",
        "meta_object_id": "2025-256A",
        "meta_epoch": "2025-12-09T14:53:13.010208",
        "meta_mean_motion": 14.49935752,
        "meta_eccentricity": 0.00135578,
        "meta_inclination": 98.277,
        "meta_ra_of_asc_node": 48.4355,
        "meta_arg_of_pericenter": 187.1977,
        "meta_mean_anomaly": 172.9025,
        "meta_ephemeris_type": 0,
        "meta_classification_type": "U",
        "meta_norad_cat_id": 66409,
        "meta_element_set_no": 999,
        "meta_rev_at_epoch": 442,
        "meta_bstar": 0.00043679195,
        "meta_mean_motion_dot": 1.647e-05,
        "meta_mean_motion_ddot": 0,
        "tle_line1": "1 66409U 25256A   25343.62028947  .00001647  00000+0  43679-3 0  9999",
        "tle_line2": "2 66409  98.2770  48.4355 0013557 187.1977 172.9025 14.49935752  4425"
      },
      "geometry": {
        "type": "Point",
        "coordinates": [
          -129.28420404559546,
          13.77844798430675
        ]
      }
    },
    {
      "type": "Feature",
      "properties": {
        "norad_id": 66410,
        "name": "CHUTIAN-2 B",
        "group": "last-30-days",
        "lat": -69.73254418297793,
        "lon": -154.50954261548452,
        "alt_km": 725.3001924057617,
        "timestamp": "2025-12-09T20:37:08.054502+00:00",
        "meta_object_name": "CHUTIAN-2 B",
        "meta_object_id": "2025-256B",
        "meta_epoch": "2025-12-08T12:01:02.397216",
        "meta_mean_motion": 14.50918128,
        "meta_eccentricity": 0.0013696,
        "meta_inclination": 98.2797,
        "meta_ra_of_asc_node": 47.3789,
        "meta_arg_of_pericenter": 193.7504,
        "meta_mean_anomaly": 166.332,
        "meta_ephemeris_type": 0,
        "meta_classification_type": "U",
        "meta_norad_cat_id": 66410,
        "meta_element_set_no": 999,
        "meta_rev_at_epoch": 426,
        "meta_bstar": 0.00034704,
        "meta_mean_motion_dot": 1.327e-05,
        "meta_mean_motion_ddot": 0,
        "tle_line1": "1 66410U 25256B   25342.50072219  .00001327  00000+0  34704-3 0  9992",
        "tle_line2": "2 66410  98.2797  47.3789 0013696 193.7504 166.3320 14.50918128  4265"
      },
      "geometry": {
        "type": "Point",
        "coordinates": [
          -154.50954261548452,
          -69.73254418297793
        ]
      }
    },
    {
      "type": "Feature",
      "properties": {
        "norad_id": 66411,
        "name": "ZK-1A R/B",
        "group": "last-30-days",
        "lat": 50.41708899896263,
        "lon": 41.23594346837699,
        "alt_km": 701.5538091331537,
        "timestamp": "2025-12-09T20:37:08.054513+00:00",
        "meta_object_name": "ZK-1A R/B",
        "meta_object_id": "2025-256C",
        "meta_epoch": "2025-12-09T15:35:18.055392",
        "meta_mean_motion": 15.01876313,
        "meta_eccentricity": 0.0228619,
        "meta_inclination": 98.3223,
        "meta_ra_of_asc_node": 51.2092,
        "meta_arg_of_pericenter": 255.2836,
        "meta_mean_anomaly": 102.295,
        "meta_ephemeris_type": 0,
        "meta_classification_type": "U",
        "meta_norad_cat_id": 66411,
        "meta_element_set_no": 999,
        "meta_rev_at_epoch": 458,
        "meta_bstar": 0.00084957764,
        "meta_mean_motion_dot": 0.00019584,
        "meta_mean_motion_ddot": 0,
        "tle_line1": "1 66411U 25256C   25343.64951453  .00019584  00000+0  84958-3 0  9995",
        "tle_line2": "2 66411  98.3223  51.2092 0228619 255.2836 102.2950 15.01876313  4586"
      },
      "geometry": {
        "type": "Point",
        "coordinates": [
          41.23594346837699,
          50.41708899896263
        ]
      }
    },
    {
      "type": "Feature",
      "properties": {
        "norad_id": 66412,
        "name": "HULIANWANG DIGUI 13A",
        "group": "last-30-days",
        "lat": 45.24242716556437,
        "lon": 36.32982690787525,
        "alt_km": 820.6192050194959,
        "timestamp": "2025-12-09T20:37:08.054524+00:00",
        "meta_object_name": "HULIANWANG DIGUI 13A",
        "meta_object_id": "2025-258A",
        "meta_epoch": "2025-12-08T08:38:10.619232",
        "meta_mean_motion": 14.20432847,
        "meta_eccentricity": 0.00076585,
        "meta_inclination": 50.0042,
        "meta_ra_of_asc_node": 280.4566,
        "meta_arg_of_pericenter": 343.0746,
        "meta_mean_anomaly": 16.9909,
        "meta_ephemeris_type": 0,
        "meta_classification_type": "U",
        "meta_norad_cat_id": 66412,
        "meta_element_set_no": 999,
        "meta_rev_at_epoch": 403,
        "meta_bstar": 0.00033138446,
        "meta_mean_motion_dot": 5.57e-06,
        "meta_mean_motion_ddot": 0,
        "tle_line1": "1 66412U 25258A   25342.35984513  .00000557  00000+0  33138-3 0  9992",
        "tle_line2": "2 66412  50.0042 280.4566 0007658 343.0746  16.9909 14.20432847  4032"
      },
      "geometry": {
        "type": "Point",
        "coordinates": [
          36.32982690787525,
          45.24242716556437
        ]
      }
    },
    {
      "type": "Feature",
      "properties": {
        "norad_id": 66413,
        "name": "HULIANWANG DIGUI 13B",
        "group": "last-30-days",
        "lat": 41.765083782012766,
        "lon": -37.16476979817143,
        "alt_km": 820.0001433587804,
        "timestamp": "2025-12-09T20:37:08.054537+00:00",
        "meta_object_name": "HULIANWANG DIGUI 13B",
        "meta_object_id": "2025-258B",
        "meta_epoch": "2025-12-08T20:40:52.882752",
        "meta_mean_motion": 14.19495379,
        "meta_eccentricity": 0.00049258,
        "meta_inclination": 49.9968,
        "meta_ra_of_asc_node": 278.4258,
        "meta_arg_of_pericenter": 347.5577,
        "meta_mean_anomaly": 12.5212,
        "meta_ephemeris_type": 0,
        "meta_classification_type": "U",
        "meta_norad_cat_id": 66413,
        "meta_element_set_no": 999,
        "meta_rev_at_epoch": 410,
        "meta_bstar": 0.00048755309,
        "meta_mean_motion_dot": 8.76e-06,
        "meta_mean_motion_ddot": 0,
        "tle_line1": "1 66413U 25258B   25342.86172318  .00000876  00000+0  48755-3 0  9996",
        "tle_line2": "2 66413  49.9968 278.4258 0004925 347.5577  12.5212 14.19495379  4101"
      },
      "geometry": {
        "type": "Point",
        "coordinates": [
          -37.16476979817143,
          41.765083782012766
        ]
      }
    },
    {
      "type": "Feature",
      "properties": {
        "norad_id": 66414,
        "name": "HULIANWANG DIGUI 13C",
        "group": "last-30-days",
        "lat": 48.5569446426509,
        "lon": -13.82894158247167,
        "alt_km": 821.2949603566303,
        "timestamp": "2025-12-09T20:37:08.054548+00:00",
        "meta_object_name": "HULIANWANG DIGUI 13C",
        "meta_object_id": "2025-258C",
        "meta_epoch": "2025-12-09T03:21:13.066848",
        "meta_mean_motion": 14.19246085,
        "meta_eccentricity": 0.00047063,
        "meta_inclination": 50.0081,
        "meta_ra_of_asc_node": 277.2503,
        "meta_arg_of_pericenter": 342.5024,
        "meta_mean_anomaly": 17.5724,
        "meta_ephemeris_type": 0,
        "meta_classification_type": "U",
        "meta_norad_cat_id": 66414,
        "meta_element_set_no": 999,
        "meta_rev_at_epoch": 414,
        "meta_bstar": 0.00041183983,
        "meta_mean_motion_dot": 7.11e-06,
        "meta_mean_motion_ddot": 0,
        "tle_line1": "1 66414U 25258C   25343.13973457  .00000711  00000+0  41184-3 0  9998",
        "tle_line2": "2 66414  50.0081 277.2503 0004706 342.5024  17.5724 14.19246085  4145"
      },
      "geometry": {
        "type": "Point",
        "coordinates": [
          -13.82894158247167,
          48.5569446426509
        ]
      }
    }
  ]
}